start=new Date('2023-01-09T00:00:00.000Z').valueOf();
sats=[{"TIME_SYSTEM":"UTC","PERIAPSIS":"347.521","REF_FRAME":"TEME","COUNTRY_CODE":"US","MEAN_MOTION":"15.73196908","ARG_OF_PERICENTER":"13.4251","OBJECT_TYPE":"PAYLOAD","MEAN_MOTION_DOT":"0.00003346","NORAD_CAT_ID":"54174","APOAPSIS":"352.017","SITE":"AFWTR","ELEMENT_SET_NO":"999","OBJECT_ID":"2022-141T","TLE_LINE1":"1 54174U 22141T   23008.77736156  .00003346  00000-0  28271-4 0  9996","MEAN_ANOMALY":"346.6857","EPHEMERIS_TYPE":"0","EPOCH":"2023-01-08T18:39:24.038784","REV_AT_EPOCH":"1149","INCLINATION":"53.2147","RA_OF_ASC_NODE":"143.1803","RCS_SIZE":"LARGE","CENTER_NAME":"EARTH","MEAN_MOTION_DDOT":"0.0000000000000","MEAN_ELEMENT_THEORY":"SGP4","CLASSIFICATION_TYPE":"U","DECAY_DATE":null,"SEMIMAJOR_AXIS":"6727.904","PERIOD":"91.533","ECCENTRICITY":"0.00033420","TLE_LINE2":"2 54174  53.2147 143.1803 0003342  13.4251 346.6857 15.73196908 11496","LAUNCH_DATE":"2022-10-28","GP_ID":"222500593","FILE":"3736460","OBJECT_NAME":"STARLINK-5248","BSTAR":"0.00002827100000"},{"INCLINATION":"53.2156","REV_AT_EPOCH":"1135","EPOCH":"2023-01-08T18:36:24.643872","MEAN_ANOMALY":"290.9897","EPHEMERIS_TYPE":"0","ELEMENT_SET_NO":"999","OBJECT_ID":"2022-141U","TLE_LINE1":"1 54175U 22141U   23008.77528523  .00001291  00000-0  99175-4 0  9992","BSTAR":"0.00009917500000","GP_ID":"222501740","FILE":"3736460","OBJECT_NAME":"STARLINK-5256","TLE_LINE2":"2 54175  53.2156 153.2288 0001314  69.1236 290.9897 15.08838728 11355","LAUNCH_DATE":"2022-10-28","ECCENTRICITY":"0.00013140","PERIOD":"95.438","MEAN_ELEMENT_THEORY":"SGP4","CLASSIFICATION_TYPE":"U","SEMIMAJOR_AXIS":"6917.884","DECAY_DATE":null,"MEAN_MOTION_DDOT":"0.0000000000000","CENTER_NAME":"EARTH","RCS_SIZE":"LARGE","RA_OF_ASC_NODE":"153.2288","COUNTRY_CODE":"US","REF_FRAME":"TEME","PERIAPSIS":"538.840","TIME_SYSTEM":"UTC","SITE":"AFWTR","OBJECT_TYPE":"PAYLOAD","MEAN_MOTION_DOT":"0.00001291","ARG_OF_PERICENTER":"69.1236","APOAPSIS":"540.658","NORAD_CAT_ID":"54175","MEAN_MOTION":"15.08838728"},{"MEAN_MOTION":"15.08838860","NORAD_CAT_ID":"54176","APOAPSIS":"540.689","ARG_OF_PERICENTER":"90.1813","OBJECT_TYPE":"PAYLOAD","MEAN_MOTION_DOT":"-0.00001753","SITE":"AFWTR","TIME_SYSTEM":"UTC","PERIAPSIS":"538.809","REF_FRAME":"TEME","COUNTRY_CODE":"US","RCS_SIZE":"LARGE","RA_OF_ASC_NODE":"154.3264","CENTER_NAME":"EARTH","MEAN_MOTION_DDOT":"0.0000000000000","DECAY_DATE":null,"SEMIMAJOR_AXIS":"6917.884","CLASSIFICATION_TYPE":"U","MEAN_ELEMENT_THEORY":"SGP4","ECCENTRICITY":"0.00013590","PERIOD":"95.438","TLE_LINE2":"2 54176  53.2169 154.3264 0001359  90.1813 269.9335 15.08838860 11316","LAUNCH_DATE":"2022-10-28","FILE":"3736288","GP_ID":"222471419","OBJECT_NAME":"STARLINK-5154","BSTAR":"-0.00009209400000","TLE_LINE1":"1 54176U 22141V   23008.49559994 -.00001753  00000-0 -92094-4 0  9996","OBJECT_ID":"2022-141V","ELEMENT_SET_NO":"999","EPHEMERIS_TYPE":"0","MEAN_ANOMALY":"269.9335","EPOCH":"2023-01-08T11:53:39.834816","REV_AT_EPOCH":"1131","INCLINATION":"53.2169"},{"ECCENTRICITY":"0.00013780","PERIOD":"95.438","TLE_LINE2":"2 54177  53.2145 154.3743 0001378  96.1159 263.9990 15.08834732 11318","LAUNCH_DATE":"2022-10-28","OBJECT_NAME":"STARLINK-5186","GP_ID":"222468859","FILE":"3736235","BSTAR":"0.00000994380000","RCS_SIZE":"LARGE","RA_OF_ASC_NODE":"154.3743","MEAN_MOTION_DDOT":"0.0000000000000","CENTER_NAME":"EARTH","CLASSIFICATION_TYPE":"U","MEAN_ELEMENT_THEORY":"SGP4","SEMIMAJOR_AXIS":"6917.896","DECAY_DATE":null,"EPOCH":"2023-01-08T12:04:15.568608","REV_AT_EPOCH":"1131","INCLINATION":"53.2145","ELEMENT_SET_NO":"999","OBJECT_ID":"2022-141W","TLE_LINE1":"1 54177U 22141W   23008.50295797 -.00000130  00000-0  99438-5 0  9994","MEAN_ANOMALY":"263.9990","EPHEMERIS_TYPE":"0","ARG_OF_PERICENTER":"96.1159","OBJECT_TYPE":"PAYLOAD","MEAN_MOTION_DOT":"-0.00000130","NORAD_CAT_ID":"54177","APOAPSIS":"540.715","SITE":"AFWTR","MEAN_MOTION":"15.08834732","COUNTRY_CODE":"US","TIME_SYSTEM":"UTC","PERIAPSIS":"538.808","REF_FRAME":"TEME"},{"PERIOD":"95.541","ECCENTRICITY":"0.00021200","TLE_LINE2":"2 54178  53.2159 153.5974 0002120  45.9666 314.1499 15.07202699 11326","LAUNCH_DATE":"2022-10-28","FILE":"3736235","GP_ID":"222470007","OBJECT_NAME":"STARLINK-5164","BSTAR":"0.00011834000000","RCS_SIZE":"LARGE","RA_OF_ASC_NODE":"153.5974","MEAN_MOTION_DDOT":"0.0000000000000","CENTER_NAME":"EARTH","CLASSIFICATION_TYPE":"U","MEAN_ELEMENT_THEORY":"SGP4","DECAY_DATE":null,"SEMIMAJOR_AXIS":"6922.889","EPOCH":"2023-01-08T11:50:58.888032","REV_AT_EPOCH":"1132","INCLINATION":"53.2159","ELEMENT_SET_NO":"999","OBJECT_ID":"2022-141X","TLE_LINE1":"1 54178U 22141X   23008.49373713  .00001518  00000-0  11834-3 0  9990","MEAN_ANOMALY":"314.1499","EPHEMERIS_TYPE":"0","ARG_OF_PERICENTER":"45.9666","MEAN_MOTION_DOT":"0.00001518","OBJECT_TYPE":"PAYLOAD","NORAD_CAT_ID":"54178","APOAPSIS":"546.222","SITE":"AFWTR","MEAN_MOTION":"15.07202699","COUNTRY_CODE":"US","TIME_SYSTEM":"UTC","PERIAPSIS":"543.287","REF_FRAME":"TEME"},{"MEAN_MOTION":"15.08836122","SITE":"AFWTR","NORAD_CAT_ID":"54179","APOAPSIS":"540.486","ARG_OF_PERICENTER":"82.4368","OBJECT_TYPE":"PAYLOAD","MEAN_MOTION_DOT":"0.00000423","REF_FRAME":"TEME","TIME_SYSTEM":"UTC","PERIAPSIS":"539.029","COUNTRY_CODE":"US","DECAY_DATE":null,"SEMIMAJOR_AXIS":"6917.892","MEAN_ELEMENT_THEORY":"SGP4","CLASSIFICATION_TYPE":"U","RA_OF_ASC_NODE":"154.3507","RCS_SIZE":"LARGE","MEAN_MOTION_DDOT":"0.0000000000000","CENTER_NAME":"EARTH","FILE":"3736235","GP_ID":"222469778","OBJECT_NAME":"STARLINK-5122","BSTAR":"0.00004466500000","ECCENTRICITY":"0.00010530","PERIOD":"95.438","TLE_LINE2":"2 54179  53.2156 154.3507 0001053  82.4368 277.6744 15.08836122 11314","LAUNCH_DATE":"2022-10-28","EPHEMERIS_TYPE":"0","MEAN_ANOMALY":"277.6744","TLE_LINE1":"1 54179U 22141Y   23008.49926958  .00000423  00000-0  44665-4 0  9999","ELEMENT_SET_NO":"999","OBJECT_ID":"2022-141Y","REV_AT_EPOCH":"1131","INCLINATION":"53.2156","EPOCH":"2023-01-08T11:58:56.891712"},{"TLE_LINE2":"2 54180  53.2173 152.7257 0001703  59.2510 300.8650 15.08842231 11360","LAUNCH_DATE":"2022-10-28","ECCENTRICITY":"0.00017030","PERIOD":"95.437","BSTAR":"0.00007086600000","GP_ID":"222501512","FILE":"3736460","OBJECT_NAME":"STARLINK-5228","MEAN_MOTION_DDOT":"0.0000000000000","CENTER_NAME":"EARTH","RA_OF_ASC_NODE":"152.7257","RCS_SIZE":"LARGE","DECAY_DATE":null,"SEMIMAJOR_AXIS":"6917.874","MEAN_ELEMENT_THEORY":"SGP4","CLASSIFICATION_TYPE":"U","EPOCH":"2023-01-08T19:24:02.906208","INCLINATION":"53.2173","REV_AT_EPOCH":"1136","TLE_LINE1":"1 54180U 22141Z   23008.80836697  .00000840  00000-0  70866-4 0  9991","OBJECT_ID":"2022-141Z","ELEMENT_SET_NO":"999","EPHEMERIS_TYPE":"0","MEAN_ANOMALY":"300.8650","APOAPSIS":"540.917","NORAD_CAT_ID":"54180","OBJECT_TYPE":"PAYLOAD","MEAN_MOTION_DOT":"0.00000840","ARG_OF_PERICENTER":"59.2510","SITE":"AFWTR","MEAN_MOTION":"15.08842231","COUNTRY_CODE":"US","PERIAPSIS":"538.560","TIME_SYSTEM":"UTC","REF_FRAME":"TEME"},{"REF_FRAME":"TEME","PERIAPSIS":"538.859","TIME_SYSTEM":"UTC","COUNTRY_CODE":"US","MEAN_MOTION":"15.08847574","SITE":"AFWTR","OBJECT_TYPE":"PAYLOAD","MEAN_MOTION_DOT":"0.00002444","ARG_OF_PERICENTER":"80.8731","APOAPSIS":"540.586","NORAD_CAT_ID":"54181","MEAN_ANOMALY":"279.2402","EPHEMERIS_TYPE":"0","ELEMENT_SET_NO":"999","OBJECT_ID":"2022-141AA","TLE_LINE1":"1 54181U 22141AA  23008.81941894  .00002444  00000-0  17154-3 0  9991","INCLINATION":"53.2165","REV_AT_EPOCH":"1136","EPOCH":"2023-01-08T19:39:57.796416","CLASSIFICATION_TYPE":"U","MEAN_ELEMENT_THEORY":"SGP4","DECAY_DATE":null,"SEMIMAJOR_AXIS":"6917.857","CENTER_NAME":"EARTH","MEAN_MOTION_DDOT":"0.0000000000000","RCS_SIZE":"LARGE","RA_OF_ASC_NODE":"152.7962","BSTAR":"0.00017154000000","GP_ID":"222500364","FILE":"3736460","OBJECT_NAME":"STARLINK-5227","TLE_LINE2":"2 54181  53.2165 152.7962 0001248  80.8731 279.2402 15.08847574 11363","LAUNCH_DATE":"2022-10-28","PERIOD":"95.437","ECCENTRICITY":"0.00012480"},{"MEAN_MOTION":"15.66726790","NORAD_CAT_ID":"54182","APOAPSIS":"369.919","ARG_OF_PERICENTER":"11.4392","MEAN_MOTION_DOT":"0.00052682","OBJECT_TYPE":"PAYLOAD","SITE":"AFWTR","TIME_SYSTEM":"UTC","PERIAPSIS":"366.639","REF_FRAME":"TEME","COUNTRY_CODE":"US","RA_OF_ASC_NODE":"145.2315","RCS_SIZE":"LARGE","MEAN_MOTION_DDOT":"0.0000000000000","CENTER_NAME":"EARTH","DECAY_DATE":null,"SEMIMAJOR_AXIS":"6746.414","CLASSIFICATION_TYPE":"U","MEAN_ELEMENT_THEORY":"SGP4","ECCENTRICITY":"0.00024310","PERIOD":"91.911","LAUNCH_DATE":"2022-10-28","TLE_LINE2":"2 54182  53.2140 145.2315 0002431  11.4392 348.6680 15.66726790 11453","GP_ID":"222500594","FILE":"3736460","OBJECT_NAME":"STARLINK-5231","BSTAR":"0.00049345000000","TLE_LINE1":"1 54182U 22141AB  23008.64428201  .00052682  00000-0  49345-3 0  9991","ELEMENT_SET_NO":"999","OBJECT_ID":"2022-141AB","EPHEMERIS_TYPE":"0","MEAN_ANOMALY":"348.6680","EPOCH":"2023-01-08T15:27:45.965664","REV_AT_EPOCH":"1145","INCLINATION":"53.2140"},{"CLASSIFICATION_TYPE":"U","MEAN_ELEMENT_THEORY":"SGP4","DECAY_DATE":null,"SEMIMAJOR_AXIS":"6917.865","RA_OF_ASC_NODE":"153.9462","RCS_SIZE":"LARGE","MEAN_MOTION_DDOT":"0.0000000000000","CENTER_NAME":"EARTH","GP_ID":"222471435","FILE":"3736289","OBJECT_NAME":"STARLINK-5239","BSTAR":"0.00005558200000","ECCENTRICITY":"0.00009320","PERIOD":"95.437","TLE_LINE2":"2 54183  53.2160 153.9462 0000932  22.9262 337.1772 15.08844934 11555","LAUNCH_DATE":"2022-10-28","MEAN_ANOMALY":"337.1772","EPHEMERIS_TYPE":"0","ELEMENT_SET_NO":"999","OBJECT_ID":"2022-141AC","TLE_LINE1":"1 54183U 22141AC  23008.54707864  .00000597  00000-0  55582-4 0  9995","REV_AT_EPOCH":"1155","INCLINATION":"53.2160","EPOCH":"2023-01-08T13:07:47.594496","MEAN_MOTION":"15.08844934","SITE":"AFWTR","ARG_OF_PERICENTER":"22.9262","MEAN_MOTION_DOT":"0.00000597","OBJECT_TYPE":"PAYLOAD","NORAD_CAT_ID":"54183","APOAPSIS":"540.375","REF_FRAME":"TEME","TIME_SYSTEM":"UTC","PERIAPSIS":"539.086","COUNTRY_CODE":"US"}];
